{
  "type": "FeatureCollection",
  "features": [
    {
      "type": "Feature",
      "properties": {
        "norad_id": 44334,
        "name": "EUTELSAT 7C",
        "group": "eutelsat",
        "lat": 0.04795758982817866,
        "lon": -109.28626143488229,
        "alt_km": 35772.269138616444,
        "timestamp": "2025-12-11T10:53:15.557113+00:00",
        "meta_object_name": "EUTELSAT 7C",
        "meta_object_id": "2019-034B",
        "meta_epoch": "2025-12-11T03:16:21.114336",
        "meta_mean_motion": 1.00271216,
        "meta_eccentricity": 0.000332,
        "meta_inclination": 0.0726,
        "meta_ra_of_asc_node": 179.9554,
        "meta_arg_of_pericenter": 63.7135,
        "meta_mean_anomaly": 252.5053,
        "meta_ephemeris_type": 0,
        "meta_classification_type": "U",
        "meta_norad_cat_id": 44334,
        "meta_element_set_no": 999,
        "meta_rev_at_epoch": 495,
        "meta_bstar": 0,
        "meta_mean_motion_dot": 5.4e-07,
        "meta_mean_motion_ddot": 0,
        "tle_line1": "1 44334U 19034B   25345.13635549  .00000054  00000+0  00000+0 0  9997",
        "tle_line2": "2 44334   0.0726 179.9554 0003320  63.7135 252.5053  1.00271216  4958"
      },
      "geometry": {
        "type": "Point",
        "coordinates": [
          -109.28626143488229,
          0.04795758982817866
        ]
      }
    },
    {
      "type": "Feature",
      "properties": {
        "norad_id": 44624,
        "name": "EUTELSAT 5 WEST B",
        "group": "eutelsat",
        "lat": -0.0781991969060188,
        "lon": -121.29131627612009,
        "alt_km": 35772.75067654695,
        "timestamp": "2025-12-11T10:53:15.557125+00:00",
        "meta_object_name": "EUTELSAT 5 WEST B",
        "meta_object_id": "2019-067A",
        "meta_epoch": "2025-12-11T03:12:51.448320",
        "meta_mean_motion": 1.00271544,
        "meta_eccentricity": 0.0003422,
        "meta_inclination": 0.0629,
        "meta_ra_of_asc_node": 345.694,
        "meta_arg_of_pericenter": 275.322,
        "meta_mean_anomaly": 222.2965,
        "meta_ephemeris_type": 0,
        "meta_classification_type": "U",
        "meta_norad_cat_id": 44624,
        "meta_element_set_no": 999,
        "meta_rev_at_epoch": 2255,
        "meta_bstar": 0,
        "meta_mean_motion_dot": -3.6e-07,
        "meta_mean_motion_ddot": 0,
        "tle_line1": "1 44624U 19067A   25345.13392880 -.00000036  00000+0  00000+0 0  9994",
        "tle_line2": "2 44624   0.0629 345.6940 0003422 275.3220 222.2965  1.00271544 22558"
      },
      "geometry": {
        "type": "Point",
        "coordinates": [
          -121.29131627612009,
          -0.0781991969060188
        ]
      }
    },
    {
      "type": "Feature",
      "properties": {
        "norad_id": 45027,
        "name": "EUTELSAT KONNECT",
        "group": "eutelsat",
        "lat": 0.008556856685517228,
        "lon": -109.09305899578828,
        "alt_km": 35781.22014243289,
        "timestamp": "2025-12-11T10:53:15.557137+00:00",
        "meta_object_name": "EUTELSAT KONNECT",
        "meta_object_id": "2020-005B",
        "meta_epoch": "2025-12-11T03:16:21.114336",
        "meta_mean_motion": 1.00269203,
        "meta_eccentricity": 0.0001613,
        "meta_inclination": 0.0694,
        "meta_ra_of_asc_node": 96.3058,
        "meta_arg_of_pericenter": 190.0846,
        "meta_mean_anomaly": 209.9945,
        "meta_ephemeris_type": 0,
        "meta_classification_type": "U",
        "meta_norad_cat_id": 45027,
        "meta_element_set_no": 999,
        "meta_rev_at_epoch": 2245,
        "meta_bstar": 0,
        "meta_mean_motion_dot": 5.5e-07,
        "meta_mean_motion_ddot": 0,
        "tle_line1": "1 45027U 20005B   25345.13635549  .00000055  00000+0  00000+0 0  9998",
        "tle_line2": "2 45027   0.0694  96.3058 0001613 190.0846 209.9945  1.00269203 22453"
      },
      "geometry": {
        "type": "Point",
        "coordinates": [
          -109.09305899578828,
          0.008556856685517228
        ]
      }
    },
    {
      "type": "Feature",
      "properties": {
        "norad_id": 49056,
        "name": "EUTELSAT QUANTUM",
        "group": "eutelsat",
        "lat": -0.029968073744246038,
        "lon": -68.56367314240089,
        "alt_km": 35771.23144127311,
        "timestamp": "2025-12-11T10:53:15.557149+00:00",
        "meta_object_name": "EUTELSAT QUANTUM",
        "meta_object_id": "2021-069B",
        "meta_epoch": "2025-12-11T03:27:57.501792",
        "meta_mean_motion": 1.00271833,
        "meta_eccentricity": 0.0003689,
        "meta_inclination": 0.0182,
        "meta_ra_of_asc_node": 27.6209,
        "meta_arg_of_pericenter": 245.4753,
        "meta_mean_anomaly": 266.7006,
        "meta_ephemeris_type": 0,
        "meta_classification_type": "U",
        "meta_norad_cat_id": 49056,
        "meta_element_set_no": 999,
        "meta_rev_at_epoch": 1604,
        "meta_bstar": 0,
        "meta_mean_motion_dot": 1.32e-06,
        "meta_mean_motion_ddot": 0,
        "tle_line1": "1 49056U 21069B   25345.14441553  .00000132  00000+0  00000+0 0  9992",
        "tle_line2": "2 49056   0.0182  27.6209 0003689 245.4753 266.7006  1.00271833 16042"
      },
      "geometry": {
        "type": "Point",
        "coordinates": [
          -68.56367314240089,
          -0.029968073744246038
        ]
      }
    },
    {
      "type": "Feature",
      "properties": {
        "norad_id": 53765,
        "name": "EUTELSAT KONNECT VHTS",
        "group": "eutelsat",
        "lat": 0.015571641421766633,
        "lon": -113.56871432389637,
        "alt_km": 35775.80734872396,
        "timestamp": "2025-12-11T10:53:15.557161+00:00",
        "meta_object_name": "EUTELSAT KONNECT VHTS",
        "meta_object_id": "2022-110A",
        "meta_epoch": "2025-12-11T03:15:06.233184",
        "meta_mean_motion": 1.00271355,
        "meta_eccentricity": 0.0002463,
        "meta_inclination": 0.0669,
        "meta_ra_of_asc_node": 100.3786,
        "meta_arg_of_pericenter": 140.773,
        "meta_mean_anomaly": 250.4291,
        "meta_ephemeris_type": 0,
        "meta_classification_type": "U",
        "meta_norad_cat_id": 53765,
        "meta_element_set_no": 999,
        "meta_rev_at_epoch": 494,
        "meta_bstar": 0,
        "meta_mean_motion_dot": 2.3e-07,
        "meta_mean_motion_ddot": 0,
        "tle_line1": "1 53765U 22110A   25345.13548881  .00000023  00000+0  00000+0 0  9992",
        "tle_line2": "2 53765   0.0669 100.3786 0002463 140.7730 250.4291  1.00271355  4945"
      },
      "geometry": {
        "type": "Point",
        "coordinates": [
          -113.56871432389637,
          0.015571641421766633
        ]
      }
    },
    {
      "type": "Feature",
      "properties": {
        "norad_id": 54048,
        "name": "EUTELSAT HOTBIRD 13F",
        "group": "eutelsat",
        "lat": -0.04434229689478771,
        "lon": -103.28983501393866,
        "alt_km": 35788.39854845732,
        "timestamp": "2025-12-11T10:53:15.557179+00:00",
        "meta_object_name": "EUTELSAT HOTBIRD 13F",
        "meta_object_id": "2022-134A",
        "meta_epoch": "2025-12-11T03:18:05.946048",
        "meta_mean_motion": 1.00269036,
        "meta_eccentricity": 0.0002178,
        "meta_inclination": 0.0501,
        "meta_ra_of_asc_node": 291.9812,
        "meta_arg_of_pericenter": 64.5359,
        "meta_mean_anomaly": 146.1232,
        "meta_ephemeris_type": 0,
        "meta_classification_type": "U",
        "meta_norad_cat_id": 54048,
        "meta_element_set_no": 999,
        "meta_rev_at_epoch": 1149,
        "meta_bstar": 0,
        "meta_mean_motion_dot": 9.3e-07,
        "meta_mean_motion_ddot": 0,
        "tle_line1": "1 54048U 22134A   25345.13756882  .00000093  00000+0  00000+0 0  9992",
        "tle_line2": "2 54048   0.0501 291.9812 0002178  64.5359 146.1232  1.00269036 11492"
      },
      "geometry": {
        "type": "Point",
        "coordinates": [
          -103.28983501393866,
          -0.04434229689478771
        ]
      }
    },
    {
      "type": "Feature",
      "properties": {
        "norad_id": 54225,
        "name": "EUTELSAT HOTBIRD 13G",
        "group": "eutelsat",
        "lat": -0.00241466184533968,
        "lon": -103.2637758804815,
        "alt_km": 35784.117238678264,
        "timestamp": "2025-12-11T10:53:15.557192+00:00",
        "meta_object_name": "EUTELSAT HOTBIRD 13G",
        "meta_object_id": "2022-146A",
        "meta_epoch": "2025-12-11T03:18:05.946048",
        "meta_mean_motion": 1.00270695,
        "meta_eccentricity": 0.0001883,
        "meta_inclination": 0.0498,
        "meta_ra_of_asc_node": 236.005,
        "meta_arg_of_pericenter": 307.0649,
        "meta_mean_anomaly": 319.5494,
        "meta_ephemeris_type": 0,
        "meta_classification_type": "U",
        "meta_norad_cat_id": 54225,
        "meta_element_set_no": 999,
        "meta_rev_at_epoch": 558,
        "meta_bstar": 0,
        "meta_mean_motion_dot": 9.3e-07,
        "meta_mean_motion_ddot": 0,
        "tle_line1": "1 54225U 22146A   25345.13756882  .00000093  00000+0  00000+0 0  9992",
        "tle_line2": "2 54225   0.0498 236.0050 0001883 307.0649 319.5494  1.00270695  5589"
      },
      "geometry": {
        "type": "Point",
        "coordinates": [
          -103.2637758804815,
          -0.00241466184533968
        ]
      }
    }
  ]
}